0 COSMOS 1994
1 19785U 89009A   13284.16054041  .00000013  00000-0  13713-4 0  4106
2 19785 082.6211 061.2320 0014204 056.8387 029.9017 12.64247751138250
0 COSMOS 1994
1 19785U 89009A   13286.44956605 -.00000007  00000-0 -96366-4 0  4117
2 19785 082.6218 059.7743 0014189 051.9364 007.6157 12.64247889138543
0 COSMOS 1994
1 19785U 89009A   13288.83581091  .00000006  00000-0 -25257-4 0  4125
2 19785 082.6224 058.2548 0014064 046.5548 068.0632 12.64247589138842
0 COSMOS 1994
1 19785U 89009A   13290.89437237  .00000030  00000-0  10641-3 0  4133
2 19785 082.6227 056.9445 0013997 041.9946 077.0514 12.64247528139103
0 COSMOS 1994
1 19785U 89009A   13293.41416271  .00000044  00000-0  18104-3 0  4147
2 19785 082.6227 055.3405 0013892 036.3831 025.2266 12.64247586139425
0 COSMOS 1994
1 19785U 89009A   13296.18477574  .00000030  00000-0  10422-3 0  4158
2 19785 082.6229 053.5766 0013791 030.2711 034.8993 12.64247856139776
